217P/LINEAR,e,12.8645,125.4785,246.8443,3.951608,0.1254710,0.68833425,140.1618,08/07.0/2020,2000,g 12.0,4.0
# From MPEC 2020-N31
218P/LINEAR,e,2.7255,175.9757,59.7853,3.093820,0.1811179,0.62185670,349.5355,08/07.0/2020,2000,g 16.0,4.0
# From MPC100284
219P/LINEAR,e,11.5295,230.9941,107.3661,3.650770,0.1412952,0.35361715,178.3770,08/07.0/2020,2000,g 11.0,4.0
# From MPEC 2020-N31
220P/McNaught,e,8.1280,150.1061,180.5434,3.116322,0.1791598,0.50189538,337.4883,08/07.0/2020,2000,g 15.0,4.0
# From MPC 93589
221P/LINEAR,e,11.4260,229.7193,40.0528,3.457545,0.1533036,0.49282857,283.6617,08/07.0/2020,2000,g 14.5,4.0
# From MPC 92277
222P/LINEAR,e,5.0952,6.7934,346.2301,2.899374,0.1996400,0.71443746,85.6236,08/07.0/2020,2000,g 20.0,4.0
# From MPEC 2020-HN5
223P/Skiff,e,27.0179,346.7740,37.8194,4.159146,0.1161978,0.41571659,64.8037,08/07.0/2020,2000,g 12.0,4.0
# From MPC 75727
224P/LINEAR-NEAT,e,13.3190,40.3336,16.7846,3.438185,0.1546002,0.40829717,238.8147,08/07.0/2020,2000,g 15.5,4.0
# From MPC 75727
225P/LINEAR,e,21.3510,14.1846,3.8662,3.650939,0.1412854,0.63768729,205.0657,08/07.0/2020,2000,g 18.0,4.0
# From MPC106349
226P/Pigott-LINEAR-Kowalski,e,44.0093,54.0042,341.0492,3.767829,0.1347619,0.52822476,193.1491,08/07.0/2020,2000,g 12.5,4.0
# From MPC102956
227P/Catalina-LINEAR,e,6.5080,49.3531,90.1799,3.568889,0.1461856,0.50625270,166.6255,08/07.0/2020,2000,g 16.5,2.0
# From MPEC 2020-L06
228P/LINEAR,e,7.9102,30.9834,115.2770,4.173168,0.1156126,0.17669671,17.2832,08/07.0/2020,2000,g 14.5,2.0
# From MPC106349
229P/Gibbs,e,26.0868,157.9005,223.9751,3.931186,0.1264499,0.37659127,148.4847,08/07.0/2020,2000,g 13.0,4.0
# From MPC110497
230P/LINEAR,e,15.5142,107.0218,313.6177,3.449471,0.1538421,0.54825209,269.4861,08/07.0/2020,2000,g 13.0,4.0
# From MPEC 2020-N31
231P/LINEAR-NEAT,e,12.3346,133.0220,42.9169,4.019203,0.1223191,0.24766765,51.2548,08/07.0/2020,2000,g 14.5,2.0
# From MPC112394
232P/Hill,e,14.6314,56.0199,53.4746,4.482030,0.1038704,0.33425160,50.7745,08/07.0/2020,2000,g 11.5,4.0
# From MPC 92986
233P/La Sagra,e,11.2839,74.9273,27.0603,3.030681,0.1868072,0.41179518,349.5992,08/07.0/2020,2000,g 15.0,4.0
# From MPC110497
234P/LINEAR,e,11.5252,179.5668,357.3642,3.802697,0.1329127,0.25414715,154.9380,08/07.0/2020,2000,g 12.0,4.0
# From MPC110497
235P/LINEAR,e,8.8906,203.8355,333.4880,3.980994,0.1240843,0.31993185,108.5002,08/07.0/2020,2000,g 12.0,4.0
# From MPC107688
236P/LINEAR,e,16.3341,245.6506,119.1999,3.731091,0.1367572,0.50851877,135.4576,08/07.0/2020,2000,g 14.0,4.0
# From MPC109593
237P/LINEAR,e,14.0202,245.4131,25.1809,3.512419,0.1497251,0.43471001,208.7642,08/07.0/2020,2000,g 14.5,2.0
# From MPC107688
238P/Read,e,1.2645,51.6430,324.6826,3.163550,0.1751629,0.25232684,242.8248,08/07.0/2020,2000,g 14.5,4.0
# From MPC112394
239P/LINEAR,e,11.3016,255.9141,220.4425,4.471370,0.1042421,0.63055562,59.9373,08/07.0/2020,2000,g 17.5,2.0
# From MPC109593
240P/NEAT,e,23.5056,74.9217,351.9976,3.868071,0.1295574,0.44872266,105.5183,08/07.0/2020,2000,g 11.0,4.0
# From MPC 75729
241P/LINEAR,e,21.1050,305.4827,111.3155,4.927004,0.0901218,0.61050484,328.2280,08/07.0/2020,2000,g 13.5,4.0
# From MPC 81861
242P/Spahr,e,32.4818,180.4723,246.2094,5.478079,0.0768708,0.27793166,236.1156,08/07.0/2020,2000,g  8.0,4.0
# From MPC111774
243P/NEAT,e,7.6412,87.6545,283.5207,3.831499,0.1314168,0.35980952,93.5545,08/07.0/2020,2000,g 12.5,4.0
# From MPC 88331
244P/Scotti,e,2.2592,353.9901,92.8709,4.895470,0.0909939,0.19840792,284.3839,08/07.0/2020,2000,g  9.0,4.0
# From MPC111774
245P/WISE,e,21.1972,316.6499,316.8249,4.042750,0.1212520,0.45759240,110.3601,08/07.0/2020,2000,g 14.0,4.0
# From MPEC 2020-N31
246P/NEAT,e,15.9873,78.7475,176.2746,4.015526,0.1224871,0.28676190,335.5378,08/07.0/2020,2000,g 10.5,4.0
# From MPC112394
247P/LINEAR,e,13.6555,54.0116,47.4869,3.970285,0.1245866,0.62447361,76.5101,08/07.0/2020,2000,g 16.5,2.0
# From MPC 75730
248P/Gibbs,e,6.3469,207.7509,209.9071,5.990880,0.0672153,0.63790289,234.4695,08/07.0/2020,2000,g 14.0,4.0
# From MPEC 2020-N31
249P/LINEAR,e,8.3969,239.1763,65.6057,2.761961,0.2147226,0.82014413,8.2674,08/07.0/2020,2000,g 15.5,4.0
# From MPC110497
250P/Larson,e,13.2305,73.6472,45.9424,3.753988,0.1355079,0.40384283,124.2663,08/07.0/2020,2000,g 14.5,4.0
# From MPC104795
251P/LINEAR,e,23.4042,219.3992,31.2646,3.509901,0.1498862,0.50547915,167.4907,08/07.0/2020,2000,g 16.5,2.0
# From MPC102956
252P/LINEAR,e,10.4103,190.9524,343.3136,3.049538,0.1850772,0.67200075,297.4538,08/07.0/2020,2000,g 17.5,4.0
# From MPC112394
253P/PANSTARRS,e,4.9426,146.8769,230.6421,3.467822,0.1526226,0.41345443,125.4810,08/07.0/2020,2000,g 14.5,4.0
# From MPC 81473
254P/McNaught,e,32.5717,129.1735,219.4730,4.614972,0.0994147,0.32025923,354.6696,08/07.0/2020,2000,g 11.0,4.0
# From NK 2214
255P/Levy,e,14.2102,276.9229,185.0377,2.931278,0.1963896,0.72146555,211.7511,08/07.0/2020,2000,g  9.0,4.0
# From MPC 84027
256P/LINEAR,e,27.6353,81.3508,124.3046,4.636276,0.0987302,0.41836680,266.4718,08/07.0/2020,2000,g 14.0,2.0
# From MPEC 2020-N31
257P/Catalina,e,20.2212,207.7424,117.6458,3.764074,0.1349637,0.43081409,355.3108,08/07.0/2020,2000,g 11.5,4.0
# From MPC 79655
258P/PANSTARRS,e,6.7460,126.2482,26.1043,4.401481,0.1067348,0.20900939,5.1728,08/07.0/2020,2000,g 13.0,4.0
# From MPC106349
259P/Garradd,e,15.8882,51.4605,257.5780,2.730884,0.2183983,0.33846882,239.8071,08/07.0/2020,2000,g 15.5,4.0
# From MPEC 2020-L06
260P/McNaught,e,15.0532,349.3456,18.4010,3.622308,0.1429638,0.60893341,47.4659,08/07.0/2020,2000,g 13.5,4.0
# From MPEC 2019-TG9
261P/Larson,e,6.0761,291.1620,67.1301,3.489579,0.1511975,0.42304638,62.7842,08/07.0/2020,2000,g 14.0,4.0
# From MPC 82322
262P/McNaught-Russell,e,29.1730,217.9043,170.9996,6.876412,0.0546589,0.81513209,153.4281,08/07.0/2020,2000,g 13.5,4.0
# From MPC 89018
263P/Gibbs,e,11.5496,105.8144,34.4253,3.054481,0.1846282,0.58994123,192.2418,08/07.0/2020,2000,g  9.0,4.0
# From MPC114608
264P/Larsen,e,25.1331,220.8460,346.7037,3.898423,0.1280474,0.37456953,47.1094,08/07.0/2020,2000,g 13.0,4.0
# From MPC 79870
265P/LINEAR,e,14.3622,342.9359,33.4125,4.254509,0.1123130,0.64769939,339.1074,08/07.0/2020,2000,g 14.5,4.0
# From MPEC 2019-TG9
266P/Christensen,e,3.4259,5.0000,97.8457,3.535318,0.1482727,0.33946805,16.2361,08/07.0/2020,2000,g 12.5,4.0
# From MPC114608
267P/LONEOS,e,6.1376,228.6597,114.0945,3.212121,0.1712049,0.61404868,127.7920,08/07.0/2020,2000,g 19.5,4.0
# From MPC 92277
268P/Bernardi,e,16.1416,127.5848,0.0608,4.550444,0.1015368,0.47142797,196.0021,08/07.0/2020,2000,g 14.0,4.0
# From MPC104795
269P/Jedicke,e,7.0703,241.7029,225.9658,7.080630,0.0523114,0.43045190,111.7985,08/07.0/2020,2000,g 10.0,4.0
# From MPC 88332
270P/Gehrels,e,2.9177,222.9638,209.9066,6.669019,0.0572283,0.46693073,149.8262,08/07.0/2020,2000,g  8.0,4.0
# From MPC 92277
271P/van Houten-Lemmon,e,6.8664,9.2981,36.4597,7.048061,0.0526744,0.39340183,136.1630,08/07.0/2020,2000,g 11.0,4.0
# From MPC 81862
272P/NEAT,e,18.0762,109.4642,27.9852,4.454486,0.1048353,0.45415079,285.6282,08/07.0/2020,2000,g 16.0,2.0
# From MPC 82723
273P/Pons-Gambart,e,136.7686,320.4005,20.3059,31.72632,0.0055154,0.97404636,0.0000,12/17.1490/2012,2000,g 11.5,4.0
# From MPC 88332
274P/Tombaugh-Tenagra,e,15.8177,81.3366,38.5108,4.371060,0.1078509,0.43875108,294.2417,08/07.0/2020,2000,g 13.0,4.0
# From MPC 81862
275P/Hermann,e,21.2812,348.7573,174.1014,5.771476,0.0710843,0.71251076,197.9205,08/07.0/2020,2000,g 17.0,4.0
# From MPC114609
276P/Vorobjov,e,14.8185,211.4430,199.9193,5.312489,0.0804928,0.26728318,231.7179,08/07.0/2020,2000,g 11.5,4.0
# From MPC105243
277P/LINEAR,e,16.7790,276.3443,152.3211,3.851596,0.1303896,0.50552019,341.0661,08/07.0/2020,2000,g 14.0,4.0
# From MPEC 2020-L06
278P/McNaught,e,6.6852,15.4494,238.0839,3.693251,0.1388644,0.43490834,354.9925,08/07.0/2020,2000,g 14.0,4.0
# From MPC100285
279P/La Sagra,e,5.0517,346.2272,5.7589,3.575450,0.1457834,0.39810777,216.2878,08/07.0/2020,2000,g 14.0,4.0
# From MPC 89013
280P/Larsen,e,11.7749,131.3944,104.8056,4.528887,0.1022626,0.41799280,248.3051,08/07.0/2020,2000,g 12.5,4.0
# From MPC 83145
281P/MOSS,e,4.7197,87.1719,26.8623,4.869617,0.0917196,0.17156468,276.4968,08/07.0/2020,2000,g 11.0,4.0
# From MPC xxxxx
282P/,e,5.8102,9.2971,217.5430,4.244449,0.1127125,0.18924269,310.0616,08/07.0/2020,2000,g 13.5,2.0
# From MPEC 2013-M31
283P/Spacewatch,e,14.4538,161.1350,22.2721,4.139317,0.1170337,0.48501647,313.5312,08/07.0/2020,2000,g  9.0,4.0
# From MPEC 2020-N31
284P/McNaught,e,11.8585,144.2769,202.6361,3.675806,0.1398541,0.37591915,303.7372,08/07.0/2020,2000,g 13.0,4.0
# From MPC 85339
285P/LINEAR,e,25.0297,185.4891,178.4053,4.508903,0.1029432,0.61809875,268.5169,08/07.0/2020,2000,g 15.0,4.0
# From MPC 90771
286P/Christensen,e,17.0449,283.9650,24.7700,4.110844,0.1182518,0.42527025,283.9047,08/07.0/2020,2000,g 14.0,4.0
# From MPC 96868
287P/Christensen,e,16.3192,139.0419,188.8443,4.167474,0.1158496,0.27062944,237.0730,08/07.0/2020,2000,g 13.5,4.0
# From MPC xxxxx
288P/,e,3.2403,83.1880,280.7358,3.047471,0.1852655,0.20138468,253.7127,08/07.0/2020,2000,g 16.0,2.0
# From MPC118844
289P/Blanpain,e,5.8940,68.8887,9.8830,3.047852,0.1852308,0.68540646,42.6050,08/07.0/2020,2000,g  2.5,4.0
# From MPC 95214
290P/Jager,e,20.1889,302.7023,181.8381,6.165778,0.0643757,0.64068700,151.1184,08/07.0/2020,2000,g 10.5,4.0
# From MPC 89314
291P/NEAT,e,6.3259,238.1978,173.9906,4.511728,0.1028466,0.43635345,256.8899,08/07.0/2020,2000,g 13.0,4.0
# From MPC115887
292P/Li,e,24.2533,90.9990,319.4627,6.109864,0.0652615,0.58770373,155.4016,08/07.0/2020,2000,g 12.5,4.0
# From MPC 92278
293P/Spacewatch,e,9.0569,78.4121,41.0738,3.643724,0.1417052,0.41823406,340.9663,08/07.0/2020,2000,g 14.5,4.0
# From MPEC 2020-N31
294P/LINEAR,e,18.2191,312.5910,235.5517,3.206867,0.1716258,0.59451128,43.1155,08/07.0/2020,2000,g 15.5,4.0
# From MPC 93589
295P/LINEAR,e,21.0731,7.4169,72.9496,5.306567,0.0806276,0.61598922,184.2260,08/07.0/2020,2000,g 12.0,4.0
# From MPEC 2020-N31
